NORAD_CAT_ID,OBJECT_NAME,OBJECT_TYPE,EPOCH,MEAN_MOTION,ECCENTRICITY,INCLINATION,RA_OF_ASC_NODE,ARG_OF_PERICENTER,MEAN_ANOMALY,BSTAR,MEAN_MOTION_DOT,MEAN_MOTION_DDOT,TLE_LINE0,TLE_LINE1,TLE_LINE2,SEMIMAJOR_AXIS,PERIOD,APOGEE,PERIGEE,DECAYED
52631.0,STARLINK-3794,PAYLOAD,2024-01-17 17:53:01,15.08835078,0.0001337,53.2173,179.4115,102.1729,257.9413,-7.326e-06,-4.04e-06,0.0,0 STARLINK-3794,1 52631U 22052AK  24017.74515862 -.00000404  00000-0 -73260-5 0  9993,2 52631  53.2173 179.4115 0001337 102.1729 257.9413 15.08835078 93327,6917.895,95.438,540.685,538.836,0.0
52631.0,STARLINK-3794,PAYLOAD,2024-01-18 14:33:02,15.08834911,0.0001327,53.2172,175.5499,96.3658,263.7485,4.9198e-06,-2.1e-06,0.0,0 STARLINK-3794,1 52631U 22052AK  24018.60628279 -.00000210  00000-0  49198-5 0  9993,2 52631  53.2172 175.5499 0001327  96.3658 263.7485 15.08834911 93084,6917.896,95.438,540.679,538.843,0.0
52631.0,STARLINK-3794,PAYLOAD,2024-01-18 17:43:48,15.08847772,0.0001218,53.2167,174.9541,82.1303,277.9828,-0.00011499,-2.118e-05,0.0,0 STARLINK-3794,1 52631U 22052AK  24018.73875896 -.00002118  00000-0 -11499-3 0  9997,2 52631  53.2167 174.9541 0001218  82.1303 277.9828 15.08847772 93108,6917.857,95.437,540.564,538.879,0.0
52631.0,STARLINK-3794,PAYLOAD,2024-01-19 14:23:49,15.08841881,0.0001312,53.2175,171.0887,91.3234,268.7909,7.2167e-05,8.61e-06,0.0,0 STARLINK-3794,1 52631U 22052AK  24019.59987765  .00000861  00000-0  72167-4 0  9992,2 52631  53.2175 171.0887 0001312  91.3234 268.7909 15.08841881 93235,6917.875,95.437,540.647,538.832,0.0
52631.0,STARLINK-3794,PAYLOAD,2024-01-19 19:09:57,15.08860708,0.0001841,53.2175,170.1969,133.3981,226.7165,-9.4233e-06,-4.38e-06,0.0,0 STARLINK-3794,1 52631U 22052AK  24019.79858730 -.00000438  00000-0 -94233-5 0  9994,2 52631  53.2175 170.1969 0001841 133.3981 226.7165 15.08860708 93630,6917.817,95.436,540.956,538.409,0.0
52631.0,STARLINK-3794,PAYLOAD,2024-01-20 14:14:36,15.08839227,0.0001559,53.2175,166.6266,111.9352,248.1806,1.6123e-05,-3.1e-07,0.0,0 STARLINK-3794,1 52631U 22052AK  24020.59348161 -.00000031  00000-0  16123-4 0  9995,2 52631  53.2175 166.6266 0001559 111.9352 248.1806 15.08839227 93384,6917.883,95.438,540.826,538.669,0.0
52631.0,STARLINK-3794,PAYLOAD,2024-01-20 19:00:46,15.0884334,0.0001436,53.2178,165.7352,81.1251,278.9903,6.8929e-05,8.09e-06,0.0,0 STARLINK-3794,1 52631U 22052AK  24020.79219953  .00000809  00000-0  68929-4 0  9996,2 52631  53.2178 165.7352 0001436  81.1251 278.9903 15.08843340 93787,6917.87,95.437,540.729,538.742,0.0
52631.0,STARLINK-3794,PAYLOAD,2024-01-21 18:51:32,15.08852916,0.0001528,53.2191,161.2699,75.6376,284.4786,-1.9947e-05,-6.06e-06,0.0,0 STARLINK-3794,1 52631U 22052AK  24021.78579457 -.00000606  00000-0 -19947-4 0  9997,2 52631  53.2191 161.2699 0001528  75.6376 284.4786 15.08852916 93561,6917.841,95.437,540.763,538.649,0.0
52631.0,STARLINK-3794,PAYLOAD,2024-01-22 15:31:33,15.08839577,0.0001484,53.2179,157.4021,89.2975,270.8187,3.0185e-05,1.92e-06,0.0,0 STARLINK-3794,1 52631U 22052AK  24022.64692126  .00000192  00000-0  30185-4 0  9997,2 52631  53.2179 157.4021 0001484  89.2975 270.8187 15.08839577 94068,6917.882,95.438,540.773,538.72,0.0
52631.0,STARLINK-3794,PAYLOAD,2024-01-23 15:22:20,15.08848506,0.0001468,53.2182,152.9413,94.2092,265.9068,3.2267e-05,2.26e-06,0.0,0 STARLINK-3794,1 52631U 22052AK  24023.64051516  .00000226  00000-0  32267-4 0  9991,2 52631  53.2182 152.9413 0001468  94.2092 265.9068 15.08848506 94217,6917.854,95.437,540.735,538.704,0.0
52631.0,STARLINK-3794,PAYLOAD,2024-01-24 12:02:21,15.08839548,0.000162,53.2184,149.0847,118.1434,241.9722,3.8453e-05,3.24e-06,0.0,0 STARLINK-3794,1 52631U 22052AK  24024.50164009  .00000324  00000-0  38453-4 0  9991,2 52631  53.2184 149.0847 0001620 118.1434 241.9722 15.08839548 94344,6917.882,95.438,540.867,538.626,0.0
52631.0,STARLINK-3794,PAYLOAD,2024-01-24 13:37:44,15.08839047,0.0001748,53.2187,148.7873,119.1433,240.9734,2.341e-05,8.4e-07,0.0,0 STARLINK-3794,1 52631U 22052AK  24024.56788091  .00000084  00000-0  23410-4 0  9990,2 52631  53.2187 148.7873 0001748 119.1433 240.9734 15.08839047 93988,6917.883,95.438,540.958,538.539,0.0
52631.0,STARLINK-3794,PAYLOAD,2024-01-24 15:13:07,15.08841479,0.0001417,53.2181,148.4908,107.6996,252.4151,5.1796e-05,5.37e-06,0.0,0 STARLINK-3794,1 52631U 22052AK  24024.63411917  .00000537  00000-0  51796-4 0  9999,2 52631  53.2181 148.4908 0001417 107.6996 252.4151 15.08841479 93991,6917.876,95.437,540.721,538.761,0.0
52631.0,STARLINK-3794,PAYLOAD,2024-01-25 11:53:09,15.08835816,0.0001232,53.2184,144.6293,95.6691,264.4442,-8.608e-05,-1.657e-05,0.0,0 STARLINK-3794,1 52631U 22052AK  24025.49525069 -.00001657  00000-0 -86080-4 0  9998,2 52631  53.2184 144.6293 0001232  95.6691 264.4442 15.08835816 94492,6917.893,95.438,540.61,538.906,0.0
52631.0,STARLINK-3794,PAYLOAD,2024-01-25 13:28:32,15.08832444,0.0001484,53.2189,144.3304,104.9311,255.1845,-3.0178e-05,-7.68e-06,0.0,0 STARLINK-3794,1 52631U 22052AK  24025.56149116 -.00000768  00000-0 -30178-4 0  9990,2 52631  53.2189 144.3304 0001484 104.9311 255.1845 15.08832444 94138,6917.903,95.438,540.795,538.742,0.0
52631.0,STARLINK-3794,PAYLOAD,2024-01-26 13:19:19,15.08840934,0.0001163,53.2178,139.8692,86.4795,273.633,6.7546e-05,7.87e-06,0.0,0 STARLINK-3794,1 52631U 22052AK  24026.55508669  .00000787  00000-0  67546-4 0  9990,2 52631  53.2178 139.8692 0001163  86.4795 273.6330 15.08840934 94282,6917.878,95.437,540.547,538.938,0.0
52631.0,STARLINK-3794,PAYLOAD,2024-01-26 16:30:05,15.08848187,0.0001309,53.2181,139.2699,95.1889,264.9252,0.00016603,2.356e-05,0.0,0 STARLINK-3794,1 52631U 22052AK  24026.68755895  .00002356  00000-0  16603-3 0  9990,2 52631  53.2181 139.2699 0001309  95.1889 264.9252 15.08848187 94677,6917.855,95.437,540.626,538.815,0.0
52631.0,STARLINK-3794,PAYLOAD,2024-01-27 11:34:43,15.08837856,0.0001317,53.2177,135.6996,104.6694,255.4444,6.2329e-05,7.04e-06,0.0,0 STARLINK-3794,1 52631U 22052AK  24027.48245064  .00000704  00000-0  62329-4 0  9993,2 52631  53.2177 135.6996 0001317 104.6694 255.4444 15.08837856 94793,6917.887,95.438,540.663,538.841,0.0
52631.0,STARLINK-3794,PAYLOAD,2024-01-27 13:10:06,15.08838483,0.0001376,53.2178,135.4029,100.1155,259.9992,6.7643e-05,7.89e-06,0.0,0 STARLINK-3794,1 52631U 22052AK  24027.54869059  .00000789  00000-0  67643-4 0  9993,2 52631  53.2178 135.4029 0001376 100.1155 259.9992 15.08838483 94432,6917.885,95.438,540.702,538.798,0.0
52631.0,STARLINK-3794,PAYLOAD,2024-01-27 14:45:30,15.08839521,0.0001579,53.2185,135.1093,66.9809,293.135,9.2627e-05,1.186e-05,0.0,0 STARLINK-3794,1 52631U 22052AK  24027.61493191  .00001186  00000-0  92627-4 0  9993,2 52631  53.2185 135.1093 0001579  66.9809 293.1350 15.08839521 94441,6917.882,95.438,540.839,538.655,0.0
52631.0,STARLINK-3794,PAYLOAD,2024-01-28 11:25:31,15.08839478,0.0001302,53.2186,131.2415,82.3154,277.7986,-8.7054e-05,-1.673e-05,0.0,0 STARLINK-3794,1 52631U 22052AK  24028.47605789 -.00001673  00000-0 -87054-4 0  9997,2 52631  53.2186 131.2415 0001302  82.3154 277.7986 15.08839478 94945,6917.882,95.438,540.648,538.846,0.0
52631.0,STARLINK-3794,PAYLOAD,2024-01-28 13:00:54,15.08840167,0.0001362,53.2185,130.9442,78.486,281.6285,-7.8777e-05,-1.541e-05,0.0,0 STARLINK-3794,1 52631U 22052AK  24028.54229756 -.00001541  00000-0 -78777-4 0  9997,2 52631  53.2185 130.9442 0001362  78.4860 281.6285 15.08840167 94589,6917.88,95.438,540.687,538.803,0.0
52631.0,STARLINK-3794,PAYLOAD,2024-01-29 11:16:17,15.08854823,0.0001377,53.2198,126.781,77.78,282.3346,1.3099e-05,-7.9e-07,0.0,0 STARLINK-3794,1 52631U 22052AK  24029.46964732 -.00000079  00000-0  13099-4 0  9999,2 52631  53.2198 126.7810 0001377  77.7800 282.3346 15.08854823 95094,6917.835,95.437,540.653,538.747,0.0
52631.0,STARLINK-3794,PAYLOAD,2024-01-29 16:02:26,15.08858763,0.0001341,53.2188,125.8875,93.0304,267.0841,0.00015342,2.156e-05,0.0,0 STARLINK-3794,1 52631U 22052AK  24029.66835841  .00002156  00000-0  15342-3 0  9998,2 52631  53.2188 125.8875 0001341  93.0304 267.0841 15.08858763 95126,6917.823,95.436,540.616,538.76,0.0
52631.0,STARLINK-3794,PAYLOAD,2024-01-30 11:07:05,15.08839617,0.0001452,53.2193,122.3189,91.9921,268.1237,5.0136e-05,5.1e-06,0.0,0 STARLINK-3794,1 52631U 22052AK  24030.46325474  .00000510  00000-0  50136-4 0  9997,2 52631  53.2193 122.3189 0001452  91.9921 268.1237 15.08839617 95248,6917.882,95.438,540.751,538.742,0.0
52631.0,STARLINK-3794,PAYLOAD,2024-01-30 12:42:28,15.0883946,0.0001409,53.2191,122.0211,101.6656,258.4495,5.0929e-05,5.23e-06,0.0,0 STARLINK-3794,1 52631U 22052AK  24030.52949432  .00000523  00000-0  50929-4 0  9994,2 52631  53.2191 122.0211 0001409 101.6656 258.4495 15.08839460 94888,6917.882,95.438,540.722,538.772,0.0
52631.0,STARLINK-3794,PAYLOAD,2024-01-31 12:33:14,15.08848844,0.0001682,53.2185,117.5625,113.9742,246.1426,-4.4359e-05,-9.94e-06,0.0,0 STARLINK-3794,1 52631U 22052AK  24031.52309020 -.00000994  00000-0 -44359-4 0  9992,2 52631  53.2185 117.5625 0001682 113.9742 246.1426 15.08848844 95407,6917.853,95.437,540.882,538.555,0.0
52631.0,STARLINK-3794,PAYLOAD,2024-01-31 15:44:01,15.088356,0.0002123,53.2185,116.9669,124.6456,235.4737,0.0001414,1.963e-05,0.0,0 STARLINK-3794,1 52631U 22052AK  24031.65557289  .00001963  00000-0  14140-3 0  9997,2 52631  53.2185 116.9669 0002123 124.6456 235.4737 15.08835600 95424,6917.894,95.438,541.228,538.29,0.0
52631.0,STARLINK-3794,PAYLOAD,2024-02-01 10:48:39,15.0883459,0.0001505,53.2182,113.3976,92.4055,267.7109,5.6921e-05,6.18e-06,0.0,0 STARLINK-3794,1 52631U 22052AK  24032.45045785  .00000618  00000-0  56921-4 0  9999,2 52631  53.2182 113.3976 0001505  92.4055 267.7109 15.08834590 95173,6917.897,95.438,540.803,538.721,0.0
52631.0,STARLINK-3794,PAYLOAD,2024-02-01 13:59:25,15.08835827,0.0001595,53.2186,112.8035,101.4606,258.6565,6.9271e-05,8.14e-06,0.0,0 STARLINK-3794,1 52631U 22052AK  24032.58293700  .00000814  00000-0  69271-4 0  9995,2 52631  53.2186 112.8035 0001595 101.4606 258.6565 15.08835827 95190,6917.893,95.438,540.862,538.655,0.0
